[{"OBJECT_NAME":"TIANYAN 01","OBJECT_ID":"2019-093C","EPOCH":"2026-03-09T22:55:08.726304","MEAN_MOTION":14.86342268,"ECCENTRICITY":0.00148111,"INCLINATION":97.7605,"RA_OF_ASC_NODE":143.5863,"ARG_OF_PERICENTER":57.0441,"MEAN_ANOMALY":303.2196,"EPHEMERIS_TYPE":0,"CLASSIFICATION_TYPE":"U","NORAD_CAT_ID":44881,"ELEMENT_SET_NO":999,"REV_AT_EPOCH":33667,"BSTAR":0.00018240998,"MEAN_MOTION_DOT":1.557e-5,"MEAN_MOTION_DDOT":0},{"OBJECT_NAME":"AAC-AIS-SAT1","OBJECT_ID":"2023-001DC","EPOCH":"2026-03-09T23:01:17.922144","MEAN_MOTION":14.91136128,"ECCENTRICITY":0.00085003,"INCLINATION":97.9251,"RA_OF_ASC_NODE":145.2649,"ARG_OF_PERICENTER":240.5114,"MEAN_ANOMALY":119.5257,"EPHEMERIS_TYPE":0,"CLASSIFICATION_TYPE":"U","NORAD_CAT_ID":55107,"ELEMENT_SET_NO":999,"REV_AT_EPOCH":16349,"BSTAR":0.00074274767,"MEAN_MOTION_DOT":7.319e-5,"MEAN_MOTION_DDOT":0}]
